{
  "type": "FeatureCollection",
  "features": [
    {
      "type": "Feature",
      "properties": {
        "norad_id": 27954,
        "name": "GALAXY 13 (HORIZONS-1)",
        "group": "intelsat",
        "lat": -0.823661529706282,
        "lon": 27.772406986601585,
        "alt_km": 35790.183877388175,
        "timestamp": "2025-12-26T05:31:12.167361+00:00",
        "meta_object_name": "GALAXY 13 (HORIZONS-1)",
        "meta_object_id": "2003-044A",
        "meta_epoch": "2025-12-25T17:29:16.766592",
        "meta_mean_motion": 1.00272154,
        "meta_eccentricity": 0.00023073,
        "meta_inclination": 0.9704,
        "meta_ra_of_asc_node": 86.3013,
        "meta_arg_of_pericenter": 186.2306,
        "meta_mean_anomaly": 294.243,
        "meta_ephemeris_type": 0,
        "meta_classification_type": "U",
        "meta_norad_cat_id": 27954,
        "meta_element_set_no": 999,
        "meta_rev_at_epoch": 4483,
        "meta_bstar": 0,
        "meta_mean_motion_dot": 1.54e-06,
        "meta_mean_motion_ddot": 0,
        "tle_line1": "1 27954U 03044A   25359.72866628  .00000154  00000+0  00000+0 0  9995",
        "tle_line2": "2 27954   0.9704  86.3013 0002307 186.2306 294.2430  1.00272154 44833"
      },
      "geometry": {
        "type": "Point",
        "coordinates": [
          27.772406986601585,
          -0.823661529706282
        ]
      }
    },
    {
      "type": "Feature",
      "properties": {
        "norad_id": 28358,
        "name": "INTELSAT 10-02",
        "group": "intelsat",
        "lat": 0.018751751561474073,
        "lon": 176.80628456854117,
        "alt_km": 35789.62690308644,
        "timestamp": "2025-12-26T05:31:12.167373+00:00",
        "meta_object_name": "INTELSAT 10-02",
        "meta_object_id": "2004-022A",
        "meta_epoch": "2025-12-25T19:54:40.343904",
        "meta_mean_motion": 1.00269837,
        "meta_eccentricity": 0.00011908,
        "meta_inclination": 0.0181,
        "meta_ra_of_asc_node": 37.2184,
        "meta_arg_of_pericenter": 266.6256,
        "meta_mean_anomaly": 88.4557,
        "meta_ephemeris_type": 0,
        "meta_classification_type": "U",
        "meta_norad_cat_id": 28358,
        "meta_element_set_no": 999,
        "meta_rev_at_epoch": 7881,
        "meta_bstar": 0,
        "meta_mean_motion_dot": 1.1e-07,
        "meta_mean_motion_ddot": 0,
        "tle_line1": "1 28358U 04022A   25359.82963361  .00000011  00000+0  00000+0 0  9996",
        "tle_line2": "2 28358   0.0181  37.2184 0001190 266.6256  88.4557  1.00269837 78814"
      },
      "geometry": {
        "type": "Point",
        "coordinates": [
          176.80628456854117,
          0.018751751561474073
        ]
      }
    },
    {
      "type": "Feature",
      "properties": {
        "norad_id": 28626,
        "name": "XM-3 (RHYTHM)",
        "group": "intelsat",
        "lat": 0.10535836101192221,
        "lon": -132.09139456687691,
        "alt_km": 36166.268869686595,
        "timestamp": "2025-12-26T05:31:12.167385+00:00",
        "meta_object_name": "XM-3 (RHYTHM)",
        "meta_object_id": "2005-008A",
        "meta_epoch": "2025-12-25T21:53:38.819040",
        "meta_mean_motion": 0.98950334,
        "meta_eccentricity": 0.00022251,
        "meta_inclination": 0.2066,
        "meta_ra_of_asc_node": 82.2869,
        "meta_arg_of_pericenter": 272.6004,
        "meta_mean_anomaly": 119.8578,
        "meta_ephemeris_type": 0,
        "meta_classification_type": "U",
        "meta_norad_cat_id": 28626,
        "meta_element_set_no": 999,
        "meta_rev_at_epoch": 4088,
        "meta_bstar": 0,
        "meta_mean_motion_dot": 8.9e-07,
        "meta_mean_motion_ddot": 0,
        "tle_line1": "1 28626U 05008A   25359.91225485  .00000089  00000+0  00000+0 0  9992",
        "tle_line2": "2 28626   0.2066  82.2869 0002225 272.6004 119.8578  0.98950334 40887"
      },
      "geometry": {
        "type": "Point",
        "coordinates": [
          -132.09139456687691,
          0.10535836101192221
        ]
      }
    },
    {
      "type": "Feature",
      "properties": {
        "norad_id": 28659,
        "name": "DIRECTV 8",
        "group": "intelsat",
        "lat": 0.01863121067632703,
        "lon": 58.75686755633069,
        "alt_km": 35795.1551732382,
        "timestamp": "2025-12-26T05:31:12.167396+00:00",
        "meta_object_name": "DIRECTV 8",
        "meta_object_id": "2005-019A",
        "meta_epoch": "2025-12-25T07:36:38.659104",
        "meta_mean_motion": 1.00271727,
        "meta_eccentricity": 0.0003055,
        "meta_inclination": 0.0173,
        "meta_ra_of_asc_node": 36.9805,
        "meta_arg_of_pericenter": 247.0732,
        "meta_mean_anomaly": 165.1455,
        "meta_ephemeris_type": 0,
        "meta_classification_type": "U",
        "meta_norad_cat_id": 28659,
        "meta_element_set_no": 999,
        "meta_rev_at_epoch": 7533,
        "meta_bstar": 0,
        "meta_mean_motion_dot": 2.2e-07,
        "meta_mean_motion_ddot": 0,
        "tle_line1": "1 28659U 05019A   25359.31711411  .00000022  00000+0  00000+0 0  9990",
        "tle_line2": "2 28659   0.0173  36.9805 0003055 247.0732 165.1455  1.00271727 75334"
      },
      "geometry": {
        "type": "Point",
        "coordinates": [
          58.75686755633069,
          0.01863121067632703
        ]
      }
    },
    {
      "type": "Feature",
      "properties": {
        "norad_id": 28702,
        "name": "GALAXY 28 (G-28)",
        "group": "intelsat",
        "lat": 0.7722092532568103,
        "lon": 96.41910719335348,
        "alt_km": 35706.39181870743,
        "timestamp": "2025-12-26T05:31:12.167407+00:00",
        "meta_object_name": "GALAXY 28 (G-28)",
        "meta_object_id": "2005-022A",
        "meta_epoch": "2025-12-25T06:15:34.001280",
        "meta_mean_motion": 1.00599998,
        "meta_eccentricity": 0.0003524,
        "meta_inclination": 2.8519,
        "meta_ra_of_asc_node": 81.1358,
        "meta_arg_of_pericenter": 159.6201,
        "meta_mean_anomaly": 224.7014,
        "meta_ephemeris_type": 0,
        "meta_classification_type": "U",
        "meta_norad_cat_id": 28702,
        "meta_element_set_no": 999,
        "meta_rev_at_epoch": 5023,
        "meta_bstar": 0,
        "meta_mean_motion_dot": -2.29e-06,
        "meta_mean_motion_ddot": 0,
        "tle_line1": "1 28702U 05022A   25359.26081020 -.00000229  00000+0  00000+0 0  9993",
        "tle_line2": "2 28702   2.8519  81.1358 0003524 159.6201 224.7014  1.00599998 50230"
      },
      "geometry": {
        "type": "Point",
        "coordinates": [
          96.41910719335348,
          0.7722092532568103
        ]
      }
    },
    {
      "type": "Feature",
      "properties": {
        "norad_id": 29236,
        "name": "GALAXY 16 (G-16)",
        "group": "intelsat",
        "lat": -0.00640700182951469,
        "lon": 78.76201157661369,
        "alt_km": 35797.63168073196,
        "timestamp": "2025-12-26T05:31:12.167419+00:00",
        "meta_object_name": "GALAXY 16 (G-16)",
        "meta_object_id": "2006-023A",
        "meta_epoch": "2025-12-25T10:42:38.666304",
        "meta_mean_motion": 1.00269688,
        "meta_eccentricity": 0.0002737,
        "meta_inclination": 0.0046,
        "meta_ra_of_asc_node": 247.0299,
        "meta_arg_of_pericenter": 30.9577,
        "meta_mean_anomaly": 237.8648,
        "meta_ephemeris_type": 0,
        "meta_classification_type": "U",
        "meta_norad_cat_id": 29236,
        "meta_element_set_no": 999,
        "meta_rev_at_epoch": 7123,
        "meta_bstar": 0,
        "meta_mean_motion_dot": 0,
        "meta_mean_motion_ddot": 0,
        "tle_line1": "1 29236U 06023A   25359.44628086  .00000000  00000+0  00000+0 0  9993",
        "tle_line2": "2 29236   0.0046 247.0299 0002737  30.9577 237.8648  1.00269688 71238"
      },
      "geometry": {
        "type": "Point",
        "coordinates": [
          78.76201157661369,
          -0.00640700182951469
        ]
      }
    },
    {
      "type": "Feature",
      "properties": {
        "norad_id": 29494,
        "name": "DIRECTV 9S",
        "group": "intelsat",
        "lat": -0.2059302859528573,
        "lon": 76.58726137005563,
        "alt_km": 35798.01133152276,
        "timestamp": "2025-12-26T05:31:12.167431+00:00",
        "meta_object_name": "DIRECTV 9S",
        "meta_object_id": "2006-043A",
        "meta_epoch": "2025-12-25T16:00:17.788320",
        "meta_mean_motion": 1.00271625,
        "meta_eccentricity": 0.00030425,
        "meta_inclination": 1.9716,
        "meta_ra_of_asc_node": 83.0746,
        "meta_arg_of_pericenter": 196.6277,
        "meta_mean_anomaly": 313.5922,
        "meta_ephemeris_type": 0,
        "meta_classification_type": "U",
        "meta_norad_cat_id": 29494,
        "meta_element_set_no": 999,
        "meta_rev_at_epoch": 4964,
        "meta_bstar": 0,
        "meta_mean_motion_dot": -9.2e-07,
        "meta_mean_motion_ddot": 0,
        "tle_line1": "1 29494U 06043A   25359.66687255 -.00000092  00000+0  00000+0 0  9990",
        "tle_line2": "2 29494   1.9716  83.0746 0003042 196.6277 313.5922  1.00271625 49641"
      },
      "geometry": {
        "type": "Point",
        "coordinates": [
          76.58726137005563,
          -0.2059302859528573
        ]
      }
    }
  ]
}